[{"OBJECT_NAME":"IRS-P6 (RESOURCESAT-1)","OBJECT_ID":"2003-046A","EPOCH":"2026-03-10T00:23:01.313952","MEAN_MOTION":14.36117534,"ECCENTRICITY":0.00629144,"INCLINATION":98.2042,"RA_OF_ASC_NODE":110.3286,"ARG_OF_PERICENTER":280.126,"MEAN_ANOMALY":140.7181,"EPHEMERIS_TYPE":0,"CLASSIFICATION_TYPE":"U","NORAD_CAT_ID":28051,"ELEMENT_SET_NO":999,"REV_AT_EPOCH":16629,"BSTAR":9.8466414e-5,"MEAN_MOTION_DOT":2.52e-6,"MEAN_MOTION_DDOT":0},{"OBJECT_NAME":"THOR ABLESTAR DEB","OBJECT_ID":"1961-015AQ","EPOCH":"2026-03-09T07:54:37.882368","MEAN_MOTION":14.06270153,"ECCENTRICITY":0.00751241,"INCLINATION":66.6581,"RA_OF_ASC_NODE":44.862,"ARG_OF_PERICENTER":82.0972,"MEAN_ANOMALY":278.8632,"EPHEMERIS_TYPE":0,"CLASSIFICATION_TYPE":"U","NORAD_CAT_ID":154,"ELEMENT_SET_NO":999,"REV_AT_EPOCH":30259,"BSTAR":0.00030004908,"MEAN_MOTION_DOT":4.27e-6,"MEAN_MOTION_DDOT":0}]
